{
  "type": "FeatureCollection",
  "features": [
    {
      "type": "Feature",
      "properties": {
        "norad_id": 19071,
        "name": "OSCAR 32",
        "group": "nnss",
        "lat": 74.08066962794875,
        "lon": 15.442279738785482,
        "alt_km": 1141.16971547323,
        "timestamp": "2025-12-14T05:42:18.728456+00:00",
        "meta_object_name": "OSCAR 32",
        "meta_object_id": "1988-033B",
        "meta_epoch": "2025-12-13T15:26:28.350816",
        "meta_mean_motion": 13.27954086,
        "meta_eccentricity": 0.01884391,
        "meta_inclination": 90.3218,
        "meta_ra_of_asc_node": 16.5527,
        "meta_arg_of_pericenter": 164.2817,
        "meta_mean_anomaly": 312.3528,
        "meta_ephemeris_type": 0,
        "meta_classification_type": "U",
        "meta_norad_cat_id": 19071,
        "meta_element_set_no": 999,
        "meta_rev_at_epoch": 82277,
        "meta_bstar": 0.00018489187,
        "meta_mean_motion_dot": 1.01e-06,
        "meta_mean_motion_ddot": 0,
        "tle_line1": "1 19071U 88033B   25347.64338369  .00000101  00000+0  18489-3 0  9997",
        "tle_line2": "2 19071  90.3218  16.5527 0188439 164.2817 312.3528 13.27954086822776"
      },
      "geometry": {
        "type": "Point",
        "coordinates": [
          15.442279738785482,
          74.08066962794875
        ]
      }
    },
    {
      "type": "Feature",
      "properties": {
        "norad_id": 19223,
        "name": "NOVA 2",
        "group": "nnss",
        "lat": -66.24513275268995,
        "lon": -101.70004915687784,
        "alt_km": 1194.551512845659,
        "timestamp": "2025-12-14T05:42:18.728466+00:00",
        "meta_object_name": "NOVA 2",
        "meta_object_id": "1988-052A",
        "meta_epoch": "2025-12-13T16:36:29.236320",
        "meta_mean_motion": 13.22935932,
        "meta_eccentricity": 0.003051,
        "meta_inclination": 89.9871,
        "meta_ra_of_asc_node": 78.2713,
        "meta_arg_of_pericenter": 14.3163,
        "meta_mean_anomaly": 154.6747,
        "meta_ephemeris_type": 0,
        "meta_classification_type": "U",
        "meta_norad_cat_id": 19223,
        "meta_element_set_no": 999,
        "meta_rev_at_epoch": 80960,
        "meta_bstar": 0.00015150283,
        "meta_mean_motion_dot": 7.2e-07,
        "meta_mean_motion_ddot": 0,
        "tle_line1": "1 19223U 88052A   25347.69200505  .00000072  00000+0  15150-3 0  9991",
        "tle_line2": "2 19223  89.9871  78.2713 0030510  14.3163 154.6747 13.22935932809602"
      },
      "geometry": {
        "type": "Point",
        "coordinates": [
          -101.70004915687784,
          -66.24513275268995
        ]
      }
    },
    {
      "type": "Feature",
      "properties": {
        "norad_id": 19419,
        "name": "OSCAR 25",
        "group": "nnss",
        "lat": 68.52121282236386,
        "lon": 20.161081575435336,
        "alt_km": 1163.0798360550552,
        "timestamp": "2025-12-14T05:42:18.728493+00:00",
        "meta_object_name": "OSCAR 25",
        "meta_object_id": "1988-074A",
        "meta_epoch": "2025-12-13T15:39:53.608320",
        "meta_mean_motion": 13.4262341,
        "meta_eccentricity": 0.00944837,
        "meta_inclination": 90.0347,
        "meta_ra_of_asc_node": 20.2473,
        "meta_arg_of_pericenter": 243.193,
        "meta_mean_anomaly": 239.5418,
        "meta_ephemeris_type": 0,
        "meta_classification_type": "U",
        "meta_norad_cat_id": 19419,
        "meta_element_set_no": 999,
        "meta_rev_at_epoch": 82652,
        "meta_bstar": 0.0001902703,
        "meta_mean_motion_dot": 1.19e-06,
        "meta_mean_motion_ddot": 0,
        "tle_line1": "1 19419U 88074A   25347.65270380  .00000119  00000+0  19027-3 0  9995",
        "tle_line2": "2 19419  90.0347  20.2473 0094483 243.1930 239.5418 13.42623410826528"
      },
      "geometry": {
        "type": "Point",
        "coordinates": [
          20.161081575435336,
          68.52121282236386
        ]
      }
    },
    {
      "type": "Feature",
      "properties": {
        "norad_id": 19420,
        "name": "OSCAR 31",
        "group": "nnss",
        "lat": -46.79154893881184,
        "lon": 20.63819189073389,
        "alt_km": 1091.04001481246,
        "timestamp": "2025-12-14T05:42:18.728520+00:00",
        "meta_object_name": "OSCAR 31",
        "meta_object_id": "1988-074B",
        "meta_epoch": "2025-12-13T16:15:14.842368",
        "meta_mean_motion": 13.42584694,
        "meta_eccentricity": 0.00928063,
        "meta_inclination": 90.0363,
        "meta_ra_of_asc_node": 20.5975,
        "meta_arg_of_pericenter": 237.2434,
        "meta_mean_anomaly": 247.7295,
        "meta_ephemeris_type": 0,
        "meta_classification_type": "U",
        "meta_norad_cat_id": 19420,
        "meta_element_set_no": 999,
        "meta_rev_at_epoch": 82663,
        "meta_bstar": 0.00016034805,
        "meta_mean_motion_dot": 1.01e-06,
        "meta_mean_motion_ddot": 0,
        "tle_line1": "1 19420U 88074B   25347.67725512  .00000101  00000+0  16035-3 0  9998",
        "tle_line2": "2 19420  90.0363  20.5975 0092806 237.2434 247.7295 13.42584694826634"
      },
      "geometry": {
        "type": "Point",
        "coordinates": [
          20.63819189073389,
          -46.79154893881184
        ]
      }
    }
  ]
}